start=new Date('%Y-%m-41T00:00:00.000Z').valueOf();
sats=[{"FILE":"3100546","OBJECT_ID":"2021-021BK","DECAY_DATE":null,"GP_ID":"183158281","ARG_OF_PERICENTER":"72.6918","APOAPSIS":"548.399","BSTAR":"0.00005805400000","TIME_SYSTEM":"UTC","TLE_LINE1":"1 47917U 21021BK  21233.09596398  .00000583  00000-0  58054-4 0  9996","SEMIMAJOR_AXIS":"6925.311","CLASSIFICATION_TYPE":"U","CENTER_NAME":"EARTH","RA_OF_ASC_NODE":"170.7895","OBJECT_TYPE":"PAYLOAD","ECCENTRICITY":"0.00017660","MEAN_MOTION_DOT":"0.00000583","OBJECT_NAME":"STARLINK-2397","MEAN_MOTION":"15.06412356","ELEMENT_SET_NO":"999","PERIOD":"95.591","EPOCH":"2021-08-21T02:18:11.287872","TLE_LINE2":"2 47917  53.0568 170.7895 0001766  72.6918 287.4264 15.06412356 25279","EPHEMERIS_TYPE":"0","MEAN_MOTION_DDOT":"0.0000000000000","MEAN_ANOMALY":"287.4264","INCLINATION":"53.0568","SITE":"AFETR","REF_FRAME":"TEME","PERIAPSIS":"545.953","LAUNCH_DATE":"2021-03-14","REV_AT_EPOCH":"2527","MEAN_ELEMENT_THEORY":"SGP4","COUNTRY_CODE":"US","RCS_SIZE":"LARGE","NORAD_CAT_ID":"47917"},{"EPOCH":"2021-08-21T05:39:51.730560","MEAN_MOTION_DDOT":"0.0000000000000","TLE_LINE2":"2 47918  53.0556 170.1595 0001578  69.6464 290.4695 15.06402824 25294","EPHEMERIS_TYPE":"0","MEAN_MOTION_DOT":"0.00000826","MEAN_MOTION":"15.06402824","OBJECT_NAME":"STARLINK-2398","PERIOD":"95.592","ELEMENT_SET_NO":"999","RCS_SIZE":"LARGE","COUNTRY_CODE":"US","LAUNCH_DATE":"2021-03-14","MEAN_ELEMENT_THEORY":"SGP4","REV_AT_EPOCH":"2529","NORAD_CAT_ID":"47918","INCLINATION":"53.0556","MEAN_ANOMALY":"290.4695","REF_FRAME":"TEME","SITE":"AFETR","PERIAPSIS":"546.112","ARG_OF_PERICENTER":"69.6464","APOAPSIS":"548.298","FILE":"3100749","DECAY_DATE":null,"OBJECT_ID":"2021-021BL","GP_ID":"183162555","CLASSIFICATION_TYPE":"U","RA_OF_ASC_NODE":"170.1595","CENTER_NAME":"EARTH","OBJECT_TYPE":"PAYLOAD","ECCENTRICITY":"0.00015780","BSTAR":"0.00007435100000","TIME_SYSTEM":"UTC","TLE_LINE1":"1 47918U 21021BL  21233.23601540  .00000826  00000-0  74351-4 0  9997","SEMIMAJOR_AXIS":"6925.340"},{"PERIOD":"95.592","ELEMENT_SET_NO":"999","OBJECT_NAME":"STARLINK-2405","MEAN_MOTION":"15.06397662","MEAN_MOTION_DOT":"0.00000802","MEAN_MOTION_DDOT":"0.0000000000000","TLE_LINE2":"2 47919  53.0540 183.2148 0001712  53.8705 306.2443 15.06397662 25515","EPHEMERIS_TYPE":"0","EPOCH":"2021-08-20T13:21:55.950912","PERIAPSIS":"546.035","SITE":"AFETR","REF_FRAME":"TEME","INCLINATION":"53.0540","MEAN_ANOMALY":"306.2443","NORAD_CAT_ID":"47919","RCS_SIZE":"LARGE","COUNTRY_CODE":"US","LAUNCH_DATE":"2021-03-14","MEAN_ELEMENT_THEORY":"SGP4","REV_AT_EPOCH":"2551","GP_ID":"183156610","DECAY_DATE":null,"OBJECT_ID":"2021-021BM","FILE":"3100512","APOAPSIS":"548.406","ARG_OF_PERICENTER":"53.8705","SEMIMAJOR_AXIS":"6925.356","TIME_SYSTEM":"UTC","TLE_LINE1":"1 47919U 21021BM  21232.55689758  .00000802  00000-0  72772-4 0  9998","BSTAR":"0.00007277200000","ECCENTRICITY":"0.00017120","OBJECT_TYPE":"PAYLOAD","RA_OF_ASC_NODE":"183.2148","CENTER_NAME":"EARTH","CLASSIFICATION_TYPE":"U"},{"MEAN_MOTION_DOT":"0.00000596","PERIOD":"95.592","ELEMENT_SET_NO":"999","MEAN_MOTION":"15.06398256","OBJECT_NAME":"STARLINK-2087","EPOCH":"2021-08-20T18:21:10.931040","MEAN_MOTION_DDOT":"0.0000000000000","TLE_LINE2":"2 47977  53.0541 227.2779 0000826  48.7427 311.3633 15.06398256 24212","EPHEMERIS_TYPE":"0","INCLINATION":"53.0541","MEAN_ANOMALY":"311.3633","PERIAPSIS":"546.647","REF_FRAME":"TEME","SITE":"AFETR","RCS_SIZE":"LARGE","COUNTRY_CODE":"US","LAUNCH_DATE":"2021-03-24","REV_AT_EPOCH":"2421","MEAN_ELEMENT_THEORY":"SGP4","NORAD_CAT_ID":"47977","DECAY_DATE":null,"OBJECT_ID":"2021-024A","FILE":"3100512","GP_ID":"183155365","APOAPSIS":"547.791","ARG_OF_PERICENTER":"48.7427","TIME_SYSTEM":"UTC","TLE_LINE1":"1 47977U 21024A   21232.76470985  .00000596  00000-0  58899-4 0  9992","BSTAR":"0.00005889900000","SEMIMAJOR_AXIS":"6925.354","RA_OF_ASC_NODE":"227.2779","CENTER_NAME":"EARTH","CLASSIFICATION_TYPE":"U","ECCENTRICITY":"0.00008260","OBJECT_TYPE":"PAYLOAD"},{"GP_ID":"183155615","FILE":"3100512","OBJECT_ID":"2021-024B","DECAY_DATE":null,"ARG_OF_PERICENTER":"74.1613","APOAPSIS":"547.882","SEMIMAJOR_AXIS":"6925.372","BSTAR":"0.00002804800000","TIME_SYSTEM":"UTC","TLE_LINE1":"1 47978U 21024B   21232.71956846  .00000136  00000-0  28048-4 0  9996","OBJECT_TYPE":"PAYLOAD","ECCENTRICITY":"0.00009310","CLASSIFICATION_TYPE":"U","CENTER_NAME":"EARTH","RA_OF_ASC_NODE":"237.4946","OBJECT_NAME":"STARLINK-1647","MEAN_MOTION":"15.06392295","ELEMENT_SET_NO":"999","PERIOD":"95.593","MEAN_MOTION_DOT":"0.00000136","EPHEMERIS_TYPE":"0","TLE_LINE2":"2 47978  53.0571 237.4946 0000931  74.1613 285.9479 15.06392295 24066","MEAN_MOTION_DDOT":"0.0000000000000","EPOCH":"2021-08-20T17:16:10.714944","REF_FRAME":"TEME","SITE":"AFETR","PERIAPSIS":"546.592","MEAN_ANOMALY":"285.9479","INCLINATION":"53.0571","NORAD_CAT_ID":"47978","REV_AT_EPOCH":"2406","LAUNCH_DATE":"2021-03-24","MEAN_ELEMENT_THEORY":"SGP4","RCS_SIZE":"LARGE","COUNTRY_CODE":"US"},{"RA_OF_ASC_NODE":"180.3007","CENTER_NAME":"EARTH","CLASSIFICATION_TYPE":"U","ECCENTRICITY":"0.00041810","OBJECT_TYPE":"PAYLOAD","TIME_SYSTEM":"UTC","TLE_LINE1":"1 47979U 21024C   21233.09960714  .00030040  00000-0  21703-3 0  9995","BSTAR":"0.00021703000000","SEMIMAJOR_AXIS":"6727.723","APOAPSIS":"352.401","ARG_OF_PERICENTER":"17.7481","DECAY_DATE":null,"OBJECT_ID":"2021-024C","FILE":"3100639","GP_ID":"183160649","COUNTRY_CODE":"US","RCS_SIZE":"LARGE","LAUNCH_DATE":"2021-03-24","MEAN_ELEMENT_THEORY":"SGP4","REV_AT_EPOCH":"2436","NORAD_CAT_ID":"47979","INCLINATION":"53.0461","MEAN_ANOMALY":"342.3682","PERIAPSIS":"346.775","SITE":"AFETR","REF_FRAME":"TEME","EPOCH":"2021-08-21T02:23:26.056896","MEAN_MOTION_DDOT":"0.0000000000000","EPHEMERIS_TYPE":"0","TLE_LINE2":"2 47979  53.0461 180.3007 0004181  17.7481 342.3682 15.73260387 24363","MEAN_MOTION_DOT":"0.00030040","PERIOD":"91.530","ELEMENT_SET_NO":"999","MEAN_MOTION":"15.73260387","OBJECT_NAME":"STARLINK-2325"},{"ARG_OF_PERICENTER":"21.2019","APOAPSIS":"352.994","FILE":"3100512","DECAY_DATE":null,"OBJECT_ID":"2021-024D","GP_ID":"183156617","CLASSIFICATION_TYPE":"U","RA_OF_ASC_NODE":"182.8266","CENTER_NAME":"EARTH","OBJECT_TYPE":"PAYLOAD","ECCENTRICITY":"0.00048350","BSTAR":"0.00017811000000","TLE_LINE1":"1 47980U 21024D   21232.59128417  .00024470  00000-0  17811-3 0  9992","TIME_SYSTEM":"UTC","SEMIMAJOR_AXIS":"6727.877","EPOCH":"2021-08-20T14:11:26.952288","MEAN_MOTION_DDOT":"0.0000000000000","EPHEMERIS_TYPE":"0","TLE_LINE2":"2 47980  53.0461 182.8266 0004835  21.2019 338.9198 15.73206547 24813","MEAN_MOTION_DOT":"0.00024470","MEAN_MOTION":"15.73206547","OBJECT_NAME":"STARLINK-2312","PERIOD":"91.533","ELEMENT_SET_NO":"999","RCS_SIZE":"LARGE","COUNTRY_CODE":"US","REV_AT_EPOCH":"2481","LAUNCH_DATE":"2021-03-24","MEAN_ELEMENT_THEORY":"SGP4","NORAD_CAT_ID":"47980","INCLINATION":"53.0461","MEAN_ANOMALY":"338.9198","REF_FRAME":"TEME","SITE":"AFETR","PERIAPSIS":"346.489"},{"ELEMENT_SET_NO":"999","PERIOD":"95.592","OBJECT_NAME":"STARLINK-2303","MEAN_MOTION":"15.06398454","MEAN_MOTION_DOT":"0.00000154","EPHEMERIS_TYPE":"0","TLE_LINE2":"2 47981  53.0586 237.5372 0000809  65.1855 294.9218 15.06398454 24066","MEAN_MOTION_DDOT":"0.0000000000000","EPOCH":"2021-08-20T17:00:13.755456","PERIAPSIS":"546.658","REF_FRAME":"TEME","SITE":"AFETR","MEAN_ANOMALY":"294.9218","INCLINATION":"53.0586","NORAD_CAT_ID":"47981","MEAN_ELEMENT_THEORY":"SGP4","LAUNCH_DATE":"2021-03-24","REV_AT_EPOCH":"2406","COUNTRY_CODE":"US","RCS_SIZE":"LARGE","GP_ID":"183154865","OBJECT_ID":"2021-024E","DECAY_DATE":null,"FILE":"3100512","APOAPSIS":"547.779","ARG_OF_PERICENTER":"65.1855","SEMIMAJOR_AXIS":"6925.353","TIME_SYSTEM":"UTC","TLE_LINE1":"1 47981U 21024E   21232.70849254  .00000154  00000-0  29232-4 0  9999","BSTAR":"0.00002923200000","ECCENTRICITY":"0.00008090","OBJECT_TYPE":"PAYLOAD","CENTER_NAME":"EARTH","RA_OF_ASC_NODE":"237.5372","CLASSIFICATION_TYPE":"U"},{"EPHEMERIS_TYPE":"0","TLE_LINE2":"2 47982  53.0462 180.3016 0004578  16.0459 344.0703 15.73257522 24365","MEAN_MOTION_DDOT":"0.0000000000000","EPOCH":"2021-08-21T02:22:56.813088","OBJECT_NAME":"STARLINK-2317","MEAN_MOTION":"15.73257522","ELEMENT_SET_NO":"999","PERIOD":"91.530","MEAN_MOTION_DOT":"0.00023246","NORAD_CAT_ID":"47982","REV_AT_EPOCH":"2436","LAUNCH_DATE":"2021-03-24","MEAN_ELEMENT_THEORY":"SGP4","COUNTRY_CODE":"US","RCS_SIZE":"LARGE","REF_FRAME":"TEME","SITE":"AFETR","PERIAPSIS":"346.516","MEAN_ANOMALY":"344.0703","INCLINATION":"53.0462","ARG_OF_PERICENTER":"16.0459","APOAPSIS":"352.676","GP_ID":"183160297","FILE":"3100639","OBJECT_ID":"2021-024F","DECAY_DATE":null,"OBJECT_TYPE":"PAYLOAD","ECCENTRICITY":"0.00045780","CLASSIFICATION_TYPE":"U","CENTER_NAME":"EARTH","RA_OF_ASC_NODE":"180.3016","SEMIMAJOR_AXIS":"6727.731","BSTAR":"0.00016909000000","TIME_SYSTEM":"UTC","TLE_LINE1":"1 47982U 21024F   21233.09926867  .00023246  00000-0  16909-3 0  9992"},{"NORAD_CAT_ID":"47983","REV_AT_EPOCH":"2436","LAUNCH_DATE":"2021-03-24","MEAN_ELEMENT_THEORY":"SGP4","RCS_SIZE":"LARGE","COUNTRY_CODE":"US","PERIAPSIS":"346.633","REF_FRAME":"TEME","SITE":"AFETR","MEAN_ANOMALY":"346.3942","INCLINATION":"53.0466","TLE_LINE2":"2 47983  53.0466 180.3029 0004469  13.7197 346.3942 15.73242238 24364","EPHEMERIS_TYPE":"0","MEAN_MOTION_DDOT":"0.0000000000000","EPOCH":"2021-08-21T02:22:46.985952","ELEMENT_SET_NO":"999","PERIOD":"91.531","MEAN_MOTION":"15.73242238","OBJECT_NAME":"STARLINK-2289","MEAN_MOTION_DOT":"0.00013283","ECCENTRICITY":"0.00044690","OBJECT_TYPE":"PAYLOAD","CENTER_NAME":"EARTH","RA_OF_ASC_NODE":"180.3029","CLASSIFICATION_TYPE":"U","SEMIMAJOR_AXIS":"6727.775","TIME_SYSTEM":"UTC","TLE_LINE1":"1 47983U 21024G   21233.09915493  .00013283  00000-0  98706-4 0  9992","BSTAR":"0.00009870600000","APOAPSIS":"352.646","ARG_OF_PERICENTER":"13.7197","GP_ID":"183160304","OBJECT_ID":"2021-024G","DECAY_DATE":null,"FILE":"3100639"}];
